satname,norad_id,inclination_deg,eccentricity,mean_motion_rev_per_day,perigee_km,apogee_km,l1,l2
STARLINK-1296,45412,53.1563,0.0004662,15.35451295,456.39260905893025,462.76809671876254,1 45412U 20019BE  26125.55665097  .00044914  00000+0  12884-2 0  9993,2 45412  53.1563 224.1013 0004662 323.4863  36.5821 15.35451295338695
STARLINK-1309,45414,53.0613,0.0005696,15.6522883,368.73551905035765,376.4259366859451,1 45414U 20019BG  26125.63277362  .00051036  00000+0  50747-3 0  9992,2 45414  53.0613 206.1792 0005696 303.5611  56.4859 15.65228830338922
STARLINK-1316,45415,53.1584,0.0005525,15.35723396,454.9952607413643,462.55004590828776,1 45415U 20019BH  26125.53231233  .00047886  00000+0  13603-2 0  9996,2 45415  53.1584 224.2208 0005525 324.8121  35.2517 15.35723396338714
STARLINK-1286,45417,53.0467,0.0002612,15.55655499,398.47732966387593,402.01835790626865,1 45417U 20019BK  26125.48875724  .00049107  00000+0  70486-3 0  9992,2 45417  53.0467 216.8494 0002612 301.8471  58.2285 15.55655499339051
STARLINK-1308,45419,53.0478,0.0006791,15.613494,379.16628000469154,388.35028617818625,1 45419U 20019BM  26126.00002315  .00068805  00000+0  79216-3 0  9997,2 45419  53.0478 234.6465 0006791 290.8080 194.1820 15.61349400  5959
STARLINK-1329,45531,53.0416,0.0004873,15.69289951,357.6450911019292,364.2129848625473,1 45531U 20025A   26125.48532047  .00053453  00000+0  45070-3 0  9994,2 45531  53.0416 162.6829 0004873  29.7122 330.4170 15.69289951334348
STARLINK-1338,45532,53.0435,0.0004181,15.64773273,371.0678788431205,376.7139245745293,1 45532U 20025B   26125.40649627  .00056697  00000+0  57321-3 0  9995,2 45532  53.0435 168.5159 0004181   6.9710 353.1362 15.64773273334258
STARLINK-1350,45535,53.07,0.0001277,15.3748707,452.67076799161896,454.4155791079438,1 45535U 20025E   26125.43342544  .00013772  00000+0  37888-3 0  9992,2 45535  53.0700 126.3578 0001277  50.5204 309.5911 15.37487070334880
STARLINK-1362,45538,53.1582,0.0001811,15.34218658,462.00330614831455,464.4812537235075,1 45538U 20025H   26125.67748580 -.00127842  00000+0 -38590-2 0  9997,2 45538  53.1582 195.6067 0001811  48.1145 312.0012 15.34218658333910
STARLINK-1368,45540,53.157,0.0004532,15.35777598,455.5133750487894,461.7102041516828,1 45540U 20025K   26125.62599059  .01104139  00000+0  28579-1 0  9998,2 45540  53.1570 196.2165 0004532   7.4980 352.6090 15.35777598333891
STARLINK-1371,45542,53.0456,0.000663,15.56756575,392.55933469723004,401.54323436251707,1 45542U 20025M   26125.42043799  .00088940  00000+0  12133-2 0  9993,2 45542  53.0456 176.4211 0006630   1.9682 358.1354 15.56756575334144
STARLINK-1372,45543,53.1573,0.0003194,15.35106697,458.41929988726315,462.7878873784748,1 45543U 20025N   26125.53098670  .00112093  00000+0  32064-2 0  9996,2 45543  53.1573 196.2880 0003194   4.4195 355.6836 15.35106697332985
STARLINK-1373,45544,53.0443,0.0003668,15.66536714,366.34802077762015,371.2975904910327,1 45544U 20025P   26126.00002315 -.00000835  00000+0 -25184-5 0  9991,2 45544  53.0443 171.2638 0003668 339.6276 173.0193 15.66536714  5957
STARLINK-1327,45555,53.0409,0.0004747,15.6383485,373.3853244561269,379.79826397335455,1 45555U 20025AA  26125.26257882  .00135554  00000+0  14005-2 0  9993,2 45555  53.0409 151.4828 0004747 340.1375  19.9453 15.63834850334476
STARLINK-1356,45564,53.0459,0.0004331,15.53544923,403.4472828847238,409.3240364125113,1 45564U 20025AK  26125.30640160  .00096417  00000+0  14785-2 0  9992,2 45564  53.0459 162.4797 0004331 344.9160  15.1720 15.53544923334328
STARLINK-1357,45565,53.0447,0.0007985,15.65916084,365.2165289081986,375.99427052054216,1 45565U 20025AL  26125.23191403  .00069550  00000+0  66889-3 0  9997,2 45565  53.0447 121.9918 0007985  19.1495 340.9818 15.65916084334894
STARLINK-1361,45567,53.0443,0.0002188,15.57114457,394.5309362416792,397.49530433431755,1 45567U 20025AN  26125.92031797  .00078114  00000+0  10545-2 0  9997,2 45567  53.0443 158.2587 0002188 345.8111  14.2838 15.57114457334440
STARLINK-1363,45568,53.0331,0.0002707,15.96721749,281.71791214205496,285.3245339039995,1 45568U 20025AP  26126.00002315  .00275460  41484-4  63717-3 0  9991,2 45568  53.0331 107.8020 0002707  71.2607 275.6659 15.96721749  6032
STARLINK-1366,45569,53.034,0.0002577,15.92694807,293.02570905061293,296.4649125936103,1 45569U 20025AQ  26126.00002315  .00231928  31417-4  66739-3 0  9995,2 45569  53.0340 109.4254 0002577  39.6760 173.0120 15.92694807  6037
STARLINK-1376,45570,53.1575,0.0005558,15.35381553,455.9868937697802,463.5879305463359,1 45570U 20025AR  26125.45010820  .00050103  00000+0  14380-2 0  9992,2 45570  53.1575 173.1507 0005558   3.7565 356.3479 15.35381553334200
STARLINK-1320,45572,53.0459,0.0003313,15.78796952,331.6244925807023,336.0718539565114,1 45572U 20025AT  26125.20523855  .00144697  00000+0  79593-3 0  9994,2 45572  53.0459  64.7994 0003313 167.9697 192.1403 15.78796952335702
STARLINK-1321,45573,53.0432,0.0005663,15.58309452,388.7152507646897,396.3837302838583,1 45573U 20025AU  26125.24712433  .00128245  00000+0  16403-2 0  9992,2 45573  53.0432 145.6915 0005663  12.2736 347.8412 15.58309452334253
STARLINK-1331,45578,53.0473,0.0007231,15.57873517,388.91571531406134,398.709308698325,1 45578U 20025AZ  26125.90554907  .00076458  00000+0  10027-2 0  9994,2 45578  53.0473 149.3049 0007231 356.0441   4.0512 15.57873517334572
STARLINK-1333,45580,53.1558,0.0003162,15.32430202,466.39923852532775,470.72909234234885,1 45580U 20025BB  26125.43254373  .00044126  00000+0  13931-2 0  9993,2 45580  53.1558 174.0318 0003162  31.3668 328.7522 15.32430202334195
STARLINK-1335,45581,53.1531,0.0003105,15.33997291,461.7759854423448,466.0248906913848,1 45581U 20025BC  26125.36569322  .00046289  00000+0  13902-2 0  9999,2 45581  53.1531 171.4433 0003105  17.9918 342.1194 15.33997291334216
STARLINK-1337,45582,53.0464,0.0007573,15.698641,354.18356098381173,364.3880615737744,1 45582U 20025BD  26126.00002315  .00166675  00000+0  13427-2 0  9990,2 45582  53.0464 141.0118 0007573   5.7408 290.1823 15.69864100  5820
STARLINK-1347,45586,53.0383,0.0005218,15.65248217,369.00248987536906,376.04748072322764,1 45586U 20025BH  26125.95416504  .00048914  00000+0  48640-3 0  9997,2 45586  53.0383 110.4766 0005218  37.1731 322.9644 15.65248217335108
STARLINK-1364,45589,53.0444,0.0005089,15.59450418,385.80266806653253,392.69051108400254,1 45589U 20025BL  26125.26229159  .00123277  00000+0  15116-2 0  9999,2 45589  53.0444 149.8532 0005089 335.7244  24.3527 15.59450418334493
STARLINK-1365,45590,53.0467,0.0005031,15.5421433,401.0251239294821,407.84975032812054,1 45590U 20025BM  26125.54547578  .00099067  00000+0  14818-2 0  9997,2 45590  53.0467 180.7913 0005031 334.0337  26.0419 15.54214330334102
STARLINK-1443,45660,53.1331,0.0003952,15.300467,472.9642081575421,478.38145945018186,1 45660U 20035D   26125.37157002  .00051191  00000+0  17365-2 0  9992,2 45660  53.1331 162.4972 0003952 358.0532   2.0452 15.30046700327422
STARLINK-1446,45663,53.0229,0.0004543,15.45664607,426.33327992310205,432.5186316247182,1 45663U 20035G   26125.05521849  .00022325  00000+0  46288-3 0  9998,2 45663  53.0229  91.1101 0004543  74.9966 285.1542 15.45664607328382
STARLINK-1448,45665,53.0436,0.0007393,15.64645028,369.2677997413002,379.2518937188752,1 45665U 20035J   26125.91537915  .00055431  00000+0  56299-3 0  9993,2 45665  53.0436 134.5865 0007393 358.3888   1.7101 15.64645028327841
STARLINK-1451,45668,53.0511,0.0001997,15.11954116,528.8615204055941,531.6207266281262,1 45668U 20035M   26124.55469115 -.00351724  00000+0 -21270-1 0  9996,2 45668  53.0511 173.2833 0001997  18.3451 341.7612 15.11954116327191
STARLINK-1452,45669,53.0269,0.0001055,15.53494095,405.8178623683998,407.24942787452073,1 45669U 20035N   26125.96327954  .00068473  00000+0  10580-2 0  9994,2 45669  53.0269 107.0624 0001055  15.0550 345.0491 15.53494095328244
STARLINK-1453,45670,53.0407,0.0003461,15.64956273,371.0278258975877,375.7012152501293,1 45670U 20035P   26125.95519719  .00053314  00000+0  53572-3 0  9994,2 45670  53.0407  94.7881 0003461  77.1066 283.0335 15.64956273328309
STARLINK-1454,45671,53.0451,0.0005188,15.61939938,378.5466311605742,385.561005153495,1 45671U 20035Q   26125.37407903  .00123864  00000+0  13804-2 0  9993,2 45671  53.0451 138.0717 0005188 344.2479  15.8372 15.61939938327748
STARLINK-1456,45673,53.0433,0.0007441,15.60126608,382.2568805792962,392.3251905818461,1 45673U 20035S   26125.24352161  .00121075  00000+0  14465-2 0  9992,2 45673  53.0433 132.9016 0007441  26.6064 333.5328 15.60126608327821
STARLINK-1457,45674,53.036,0.0002004,16.04538595,260.53718470627246,263.198498646816,1 45674U 20035T   26125.90153596  .00504359  12960-3  73932-3 0  9994,2 45674  53.0360  91.4545 0002004  68.1157 292.0087 16.04538595328420
STARLINK-1458,45675,53.0469,0.0006741,15.51568143,407.5696670911493,416.7243279766235,1 45675U 20035U   26125.26623414  .00119641  00000+0  19614-2 0  9995,2 45675  53.0469 145.1864 0006741 346.5068  13.5760 15.51568143327615
STARLINK-1460,45676,53.1566,0.0003959,15.32354221,466.0797917527925,471.5011889396483,1 45676U 20035V   26125.27422091  .00050522  00000+0  15957-2 0  9993,2 45676  53.1566 161.9198 0003959  35.3269 324.7994 15.32354221327384
STARLINK-1392,45677,53.1531,0.0003162,15.35400751,457.56827935817,461.8925467101735,1 45677U 20035W   26125.49160632  .00030665  00000+0  88633-3 0  9996,2 45677  53.1531 160.3071 0003162  38.6050 321.5178 15.35400751327461
STARLINK-1394,45679,53.0417,0.0008486,15.601924,381.3598584770334,392.84182013790723,1 45679U 20035Y   26126.00002315  .00112896  00000+0  13467-2 0  9998,2 45679  53.0417 119.4445 0008486  37.4156 267.1542 15.60192400  5902
STARLINK-1402,45685,53.0427,0.000811,15.5364533,400.591338061281,411.595359687155,1 45685U 20035AE  26125.22687919  .00117748  00000+0  17911-2 0  9996,2 45685  53.0427 112.3365 0008110  53.6377 306.5380 15.53645330328118
